LILACSAT-2
1 40908U 15049K   17180.58771057  .00000286  00000-0  19754-4 0  9993
2 40908 097.4617 185.3541 0016622 162.5646 197.6159 15.13125174098040
XW-2F
1 40910U 15049M   17180.57330573  .00000913  00000-0  51501-4 0  9992
2 40910 097.4534 186.2784 0015928 161.4963 198.6852 15.15536816098152
XW-2B
1 40911U 15049N   17180.58464174  .00000603  00000-0  36122-4 0  9997
2 40911 097.4557 185.9687 0014927 163.8384 196.3327 15.14613366098019
DCBB
1 40912U 15049P   17180.49408902  .00001359  00000-0  70673-4 0  9993
2 40912 097.4498 188.0755 0016127 153.8155 358.1969 15.17639369098152
TW-1C
1 40926U 15051B   17180.59735157  .00006452  00000-0  14867-3 0  9998
2 40926 097.2285 220.0622 0013431 119.8257 031.0843 15.42845016098838
TW-1A
1 40928U 15051D   17180.39388029  .00003126  00000-0  90709-4 0  9995
2 40928 097.2254 215.9904 0013602 147.4948 272.1952 15.36173694098575
IO-86
1 40931U 15052B   17180.47050780  .00000697  00000-0  81366-5 0  9999
2 40931 005.9976 145.1318 0013155 055.6601 304.4763 14.76531989094784
GomX-3
1 40949U 98067HA  16292.18357804  .08527750  12374-4  77882-3 0  9992
2 40949  51.6055 106.7696 0006699 286.1344  73.8944 16.38002265 59645
LQSat
1 40958U 15057A   17180.54355098  .00000033  00000-0  13005-4 0  9999
2 40958 097.9779 255.6470 0019202 029.9796 330.2508 14.72970133092943
AO-85
1 40967U 15058D   17180.30215652  .00000077  00000-0  28415-4 0 00108
2 40967 064.7744 182.1296 0172322 073.4607 288.5348 14.75434096001588
ATHENOXAT-1
1 41168U 15077C   17180.49210372  .00001857  00000-0  67467-4 0  9990
2 41168 014.9860 079.5351 0012318 185.6899 346.5985 15.11605876084902
ChubuSat-2
1 41338U 16012B   17179.93299155  .00000317  00000-0  18123-4 0  9997
2 41338 031.0044 037.6611 0013955 176.6366 183.4365 14.99749099074759
ChubuSat-3
1 41339U 16012C   17180.59160539  .00000332  00000-0  19208-4 0  9997
2 41339 031.0122 032.6031 0013562 189.3060 170.7324 14.99954437074831
Horyu-4
1 41340U 16012D   17180.62638767  .00000450  00000-0  27952-4 0  9992
2 41340 031.0064 029.7897 0014303 198.6341 161.3772 15.00607482074880
OUFTI-1
1 41458U 16025C   17180.62569889  .00000782  00000-0  46676-4 0  9996
2 41458 098.1855 218.9196 0172483 247.7804 110.5044 15.03205668064453
e-st at r-II
1 41459U 16025D   17180.58142910  .00001806  00000-0  10120-3 0  9996
2 41459 098.1837 218.8148 0173704 248.0856 110.1822 15.03048461064432
AAUSAT4
1 41460U 16025E   17180.50500091  .00001783  00000-0  10000-3 0  9999
2 41460 098.1775 218.8467 0166468 246.8649 111.4953 15.03944085064441
MinXSS
1 41474U 98067HU  17125.52237589  .05724416  12300-4  86147-3 0  9995
2 41474 051.6449 208.6967 0008167 329.0747 030.9230 16.33400422055623
CADRE
1 41475U 98067HV  17003.74787607  .12518598  12537-4  55989-3 0  9998
2 41475  51.6110 110.0165 0004040 312.3134  47.7551 16.43344525 36494
NODES 1
1 41477U 98067HX  17180.57338017  .00055767  00000-0  24511-3 0  9990
2 41477 051.6273 298.7442 0001223 294.4895 065.5981 15.84010658064039
NODES 2
1 41478U 98067HY  17180.55673252  .00054331  00000-0  24619-3 0  9997
2 41478 051.6310 299.4174 0001370 300.6559 059.4308 15.83376017064029
LO-87
1 41557U 16033B   17180.20186342  .00001127  00000-0  45194-4 0  9996
2 41557 097.4630 259.7190 0013349 331.2552 028.7950 15.27077229060264
NuSat2
1 41558U 16033C   17180.17033250  .00001148  00000-0  46167-4 0  9996
2 41558 097.4656 259.7429 0012791 330.2827 029.7684 15.26946608060251
Lapan A3
1 41603U 16040E   17180.56033222  .00000365  00000-0  20499-4 0  9997
2 41603 097.4596 242.3960 0014770 036.1350 071.6063 15.19359066056536
Swayam
1 41607U 16040J   17180.17092558  .00001413  00000-0  67062-4 0  9997
2 41607 097.4598 242.3316 0015392 040.4262 319.8114 15.20817507056421
Pratham
1 41783U 16059A   17180.60991228  .00000037  00000-0  16621-4 0  9998
2 41783 098.1661 241.8554 0034878 120.8955 239.5684 14.62841194040411
AlSat 1N
1 41789U 16059G   17180.45149141  .00000100  00000-0  28249-4 0  9996
2 41789 098.1668 242.2231 0029527 115.1202 245.3071 14.64053260040403
ScatSat
1 41790U 16059H   17180.61468021 -.00000016  00000-0  66884-5 0  9992
2 41790 098.0639 230.1378 0012556 107.0192 253.2380 14.50111929040067
TY-1
1 41844U 16066D   17180.58332777  .00000882  00000-0  41502-4 0  9993
2 41844 097.4044 187.5504 0015505 189.1598 319.7485 15.22063716035220
CAS-2T
1 41845U 16066E   17180.50462851  .00000033  00000-0  16108-4 0  9995
2 41845 098.7751 196.4326 0366133 211.5444 146.3332 14.37759374033261
Pegasus-1
1 41846U 16066F   17180.56498078  .00000309  00000-0  58406-4 0  9995
2 41846 098.7804 196.2713 0368621 212.6900 145.0983 14.37025947033251
STARS-C
1 41895U 98067KR  17180.62471934  .00018363  00000-0  21051-3 0  9993
2 41895 051.6390 330.9179 0004260 358.1009 001.9968 15.62144314029930
Tancredo 1
1 41931U 98067KT  17180.59217832  .00037988  00000-0  33115-3 0  9993
2 41931 051.6374 327.6749 0006348 313.1017 046.9448 15.68586442025541
TO-89
1 41932U 98067KU  17180.57631091  .00009344  00000-0  12176-3 0  9998
2 41932 051.6416 332.8635 0005223 316.1289 043.9288 15.59491265025475
AOBA-V3LOX3
1 41935U 98067KX  17180.56414044  .00010603  00000-0  13557-3 0  9991
2 41935 051.6413 332.7786 0004729 319.9480 040.1164 15.59829833025574
OSNSAT
1 41939U 98067KZ  17180.46671256  .00019019  00000-0  20163-3 0  9995
2 41939 051.6388 330.6064 0006296 315.9457 044.1036 15.64119804024854
EO-88
1 42017U 17008BX  17180.58944369  .00001390  00000-0  62126-4 0  9999
2 42017 097.4945 242.0220 0007000 164.0563 196.0895 15.23008602020375
SOMP2
1 42700U 98067LH  17180.59839800  .00009139  00000-0  13569-3 0  9991
2 42700 051.6406 335.9934 0006528 011.3988 348.7150 15.55981605006878
HAVELSAT
1 42701U 98067LJ  17180.47128417  .00007659  00000-0  11533-3 0  9998
2 42701 051.6412 336.6454 0006487 011.8849 348.2295 15.55870210006847
Columbia
1 42702U 98067LK  17180.45899105  .00016287  00000-0  22904-3 0  9997
2 42702 051.6406 336.5628 0006683 000.7999 359.3002 15.56810069006772
PHOENIX
1 42706U 98067LP  17180.59943796  .00008693  00000-0  12962-3 0  9997
2 42706 051.6412 336.0029 0001603 353.0748 007.0221 15.55944797006782
X-CubeSat
1 42707U 98067LQ  17180.59995074  .00008997  00000-0  13403-3 0  9992
2 42707 051.6411 336.0051 0001652 350.2710 009.8249 15.55918855006774
qbee
1 42708U 98067LR  17180.60082139  .00008539  00000-0  12775-3 0  9997
2 42708 051.6410 336.0108 0001740 350.6371 009.4588 15.55878934006733
ZA-AeroSat
1 42713U 98067LU  17180.60670679  .00007038  00000-0  10754-3 0  9993
2 42713 051.6410 336.0498 0002251 306.4893 053.5891 15.55618388006447
LINK
1 42714U 98067LV  17180.60649829  .00008316  00000-0  12548-3 0  9990
2 42714 051.6406 336.0479 0002603 310.8213 049.2552 15.55684785006550
UPSat
1 42716U 98067LX  17180.60150775  .00009865  00000-0  14610-3 0  9991
2 42716 051.6410 336.0151 0004837 013.6351 346.4770 15.55948882006573
SpaceCube
1 42717U 98067LY  17180.60432567  .00008683  00000-0  13030-3 0  9996
2 42717 051.6411 336.0339 0004813 014.2182 345.8944 15.55768766005819
Hoopoe
1 42718U 98067LZ  17180.60328393  .00008990  00000-0  13427-3 0  9999
2 42718 051.6411 336.0271 0004836 012.6410 347.4702 15.55847384005810
Challenger
1 42721U 98067MA  17180.61160113  .00011289  00000-0  16711-3 0  9992
2 42721 051.6408 336.0810 0008055 352.0027 008.0834 15.55775068005513
NJUST-1
1 42722U 98067MB  17180.61658769  .00007174  00000-0  11050-3 0  9991
2 42722 051.6410 336.1146 0007810 355.2096 004.8820 15.55350902005514
UNSW-EC0
1 42723U 98067MC  17180.61494307  .00009081  00000-0  13712-3 0  9994
2 42723 051.6410 336.1038 0007798 353.3886 006.7001 15.55519551005492
DUTHsat
1 42724U 98067MD  17180.61406441  .00011431  00000-0  16992-3 0  9992
2 42724 051.6408 336.0978 0006992 354.9224 005.1695 15.55654102005438
LO-90
1 42725U 98067ME  17180.61812593  .00008038  00000-0  12325-3 0  9997
2 42725 051.6411 336.1251 0006804 357.9135 002.1826 15.55287719005433
nSIGHT1
1 42726U 98067MF  17180.62059148  .00004372  00000-0  70869-4 0  9993
2 42726 051.6414 336.1417 0006712 000.6729 359.4270 15.55064075005428
QBITO
1 42728U 98067MH  17180.61543855  .00008981  00000-0  13592-3 0  9996
2 42728 051.6412 336.1079 0003968 005.0993 355.0038 15.55486776005222
Aalto-2
1 42729U 98067MJ  17180.61531731  .00008720  00000-0  13216-3 0  9991
2 42729 051.6410 336.1069 0003959 005.1873 354.9159 15.55489416005235
SUSat
1 42730U 98067MK  17180.61608178  .00008836  00000-0  13396-3 0  9990
2 42730 051.6409 336.1121 0004040 003.6545 356.4475 15.55461441005231
i-INSPIRE II
1 42731U 98067ML  17180.61450342  .00009862  00000-0  14801-3 0  9991
2 42731 051.6401 336.0988 0007626 304.8707 055.1567 15.55571899005271
PolyITAN-2-SAU
1 42732U 98067MM  17180.61464780  .00008465  00000-0  12828-3 0  9998
2 42732 051.6403 336.0997 0007588 304.1079 055.9191 15.55524629005276
SNUSAT-1
1 42733U 98067MN  17180.61617139  .00008566  00000-0  13018-3 0  9991
2 42733 051.6404 336.1099 0007413 305.7641 054.2661 15.55428451005271
ExAlta-1
1 42734U 98067MP  17180.61456570  .00009408  00000-0  14152-3 0  9998
2 42734 051.6406 336.0998 0009357 328.7905 031.2529 15.55559890005223
Aoxiang-1
1 42735U 98067MQ  17180.61631529  .00007258  00000-0  11152-3 0  9996
2 42735 051.6409 336.1123 0008446 351.5137 008.5710 15.55394477006641
BeEagleSat
1 42736U 98067MR  17180.61674419  .00007918  00000-0  12099-3 0  9996
2 42736 051.6409 336.1154 0008367 350.5034 009.5798 15.55398640005331
Atlantis
1 42737U 98067MS  17180.60940271  .00015713  00000-0  22713-3 0  9994
2 42737 051.6405 336.0659 0008645 344.7256 015.3473 15.56079018005226
CAS-4B
1 42759U 17034B   17180.56386502  .00000131  00000-0  21773-4 0  9993
2 42759 043.0188 218.5655 0006775 058.6884 070.8154 15.08904492002176
CAS-4A
1 42761U 17034D   17180.56905791  .00000175  00000-0  24498-4 0  9998
2 42761 043.0187 218.5248 0007242 058.9273 102.6196 15.08977985002167
